{
  "type": "FeatureCollection",
  "features": [
    {
      "type": "Feature",
      "properties": {
        "norad_id": 32461,
        "name": "FENGYUN 1C DEB",
        "group": "fengyun-1c-debris",
        "lat": -73.96455666266718,
        "lon": -132.6840550862002,
        "alt_km": 1144.5107001536871,
        "timestamp": "2025-12-06T16:45:43.008728+00:00",
        "meta_object_name": "FENGYUN 1C DEB",
        "meta_object_id": "1999-025DBZ",
        "meta_epoch": "2025-12-05T13:18:20.356992",
        "meta_mean_motion": 13.72806417,
        "meta_eccentricity": 0.02319456,
        "meta_inclination": 98.3353,
        "meta_ra_of_asc_node": 195.6501,
        "meta_arg_of_pericenter": 136.3962,
        "meta_mean_anomaly": 255.2942,
        "meta_ephemeris_type": 0,
        "meta_classification_type": "U",
        "meta_norad_cat_id": 32461,
        "meta_element_set_no": 999,
        "meta_rev_at_epoch": 67196,
        "meta_bstar": 0.0016648898,
        "meta_mean_motion_dot": 1.824e-05,
        "meta_mean_motion_ddot": 0,
        "tle_line1": "1 32461U 99025DBZ 25339.55440228  .00001824  00000+0  16649-2 0  9995",
        "tle_line2": "2 32461  98.3353 195.6501 0231945 136.3962 255.2942 13.72806417671967"
      },
      "geometry": {
        "type": "Point",
        "coordinates": [
          -132.6840550862002,
          -73.96455666266718
        ]
      }
    },
    {
      "type": "Feature",
      "properties": {
        "norad_id": 32464,
        "name": "FENGYUN 1C DEB",
        "group": "fengyun-1c-debris",
        "lat": -78.49602426807267,
        "lon": 44.81380225551998,
        "alt_km": 523.9206177506276,
        "timestamp": "2025-12-06T16:45:43.008738+00:00",
        "meta_object_name": "FENGYUN 1C DEB",
        "meta_object_id": "1999-025DCC",
        "meta_epoch": "2025-12-06T07:28:05.693664",
        "meta_mean_motion": 14.92649103,
        "meta_eccentricity": 0.01129539,
        "meta_inclination": 97.3565,
        "meta_ra_of_asc_node": 5.0481,
        "meta_arg_of_pericenter": 258.103,
        "meta_mean_anomaly": 100.7507,
        "meta_ephemeris_type": 0,
        "meta_classification_type": "U",
        "meta_norad_cat_id": 32464,
        "meta_element_set_no": 999,
        "meta_rev_at_epoch": 60696,
        "meta_bstar": 0.002252782,
        "meta_mean_motion_dot": 0.000263,
        "meta_mean_motion_ddot": 0,
        "tle_line1": "1 32464U 99025DCC 25340.31117701  .00026300  00000+0  22528-2 0  9990",
        "tle_line2": "2 32464  97.3565   5.0481 0112953 258.1030 100.7507 14.92649103606960"
      },
      "geometry": {
        "type": "Point",
        "coordinates": [
          44.81380225551998,
          -78.49602426807267
        ]
      }
    },
    {
      "type": "Feature",
      "properties": {
        "norad_id": 33502,
        "name": "FENGYUN 1C DEB",
        "group": "fengyun-1c-debris",
        "lat": -72.93759477864144,
        "lon": 72.12685050750346,
        "alt_km": 821.1259531121123,
        "timestamp": "2025-12-06T16:45:43.008748+00:00",
        "meta_object_name": "FENGYUN 1C DEB",
        "meta_object_id": "1999-025DCF",
        "meta_epoch": "2025-12-06T02:38:06.127296",
        "meta_mean_motion": 14.21758117,
        "meta_eccentricity": 0.0078909,
        "meta_inclination": 99.0259,
        "meta_ra_of_asc_node": 282.7152,
        "meta_arg_of_pericenter": 172.2455,
        "meta_mean_anomaly": 311.2017,
        "meta_ephemeris_type": 0,
        "meta_classification_type": "U",
        "meta_norad_cat_id": 33502,
        "meta_element_set_no": 999,
        "meta_rev_at_epoch": 86861,
        "meta_bstar": 0.0036442031,
        "meta_mean_motion_dot": 8.235e-05,
        "meta_mean_motion_ddot": 0,
        "tle_line1": "1 33502U 99025DCF 25340.10979314  .00008235  00000+0  36442-2 0  9994",
        "tle_line2": "2 33502  99.0259 282.7152 0078909 172.2455 311.2017 14.21758117868616"
      },
      "geometry": {
        "type": "Point",
        "coordinates": [
          72.12685050750346,
          -72.93759477864144
        ]
      }
    },
    {
      "type": "Feature",
      "properties": {
        "norad_id": 33599,
        "name": "FENGYUN 1C DEB",
        "group": "fengyun-1c-debris",
        "lat": -43.691410633929806,
        "lon": 55.60386219338357,
        "alt_km": 441.13769272098216,
        "timestamp": "2025-12-06T16:45:43.008758+00:00",
        "meta_object_name": "FENGYUN 1C DEB",
        "meta_object_id": "1999-025DCG",
        "meta_epoch": "2025-12-05T10:49:54.411744",
        "meta_mean_motion": 15.1486166,
        "meta_eccentricity": 0.01263292,
        "meta_inclination": 96.6147,
        "meta_ra_of_asc_node": 48.1531,
        "meta_arg_of_pericenter": 325.886,
        "meta_mean_anomaly": 33.4301,
        "meta_ephemeris_type": 0,
        "meta_classification_type": "U",
        "meta_norad_cat_id": 33599,
        "meta_element_set_no": 999,
        "meta_rev_at_epoch": 65893,
        "meta_bstar": 0.0019806341,
        "meta_mean_motion_dot": 0.00045209,
        "meta_mean_motion_ddot": 0,
        "tle_line1": "1 33599U 99025DCG 25339.45132421  .00045209  00000+0  19806-2 0  9993",
        "tle_line2": "2 33599  96.6147  48.1531 0126329 325.8860  33.4301 15.14861660658934"
      },
      "geometry": {
        "type": "Point",
        "coordinates": [
          55.60386219338357,
          -43.691410633929806
        ]
      }
    },
    {
      "type": "Feature",
      "properties": {
        "norad_id": 33601,
        "name": "FENGYUN 1C DEB",
        "group": "fengyun-1c-debris",
        "lat": -54.885737339001246,
        "lon": -54.64427858684449,
        "alt_km": 844.3551873089127,
        "timestamp": "2025-12-06T16:45:43.008769+00:00",
        "meta_object_name": "FENGYUN 1C DEB",
        "meta_object_id": "1999-025DCJ",
        "meta_epoch": "2025-11-28T21:43:48.473760",
        "meta_mean_motion": 14.07801571,
        "meta_eccentricity": 0.01586414,
        "meta_inclination": 98.3138,
        "meta_ra_of_asc_node": 130.1771,
        "meta_arg_of_pericenter": 181.8859,
        "meta_mean_anomaly": 178.1734,
        "meta_ephemeris_type": 0,
        "meta_classification_type": "U",
        "meta_norad_cat_id": 33601,
        "meta_element_set_no": 999,
        "meta_rev_at_epoch": 90485,
        "meta_bstar": 0.0013995386,
        "meta_mean_motion_dot": 2.622e-05,
        "meta_mean_motion_ddot": 0,
        "tle_line1": "1 33601U 99025DCJ 25332.90542215  .00002622  00000+0  13995-2 0  9991",
        "tle_line2": "2 33601  98.3138 130.1771 0158641 181.8859 178.1734 14.07801571904853"
      },
      "geometry": {
        "type": "Point",
        "coordinates": [
          -54.64427858684449,
          -54.885737339001246
        ]
      }
    },
    {
      "type": "Feature",
      "properties": {
        "norad_id": 33603,
        "name": "FENGYUN 1C DEB",
        "group": "fengyun-1c-debris",
        "lat": 34.755034997923524,
        "lon": 101.97788290089107,
        "alt_km": 532.3988141187647,
        "timestamp": "2025-12-06T16:45:43.008779+00:00",
        "meta_object_name": "FENGYUN 1C DEB",
        "meta_object_id": "1999-025DCL",
        "meta_epoch": "2025-12-05T01:11:07.399680",
        "meta_mean_motion": 14.79868588,
        "meta_eccentricity": 0.0220742,
        "meta_inclination": 98.8039,
        "meta_ra_of_asc_node": 273.997,
        "meta_arg_of_pericenter": 96.7761,
        "meta_mean_anomaly": 265.8619,
        "meta_ephemeris_type": 0,
        "meta_classification_type": "U",
        "meta_norad_cat_id": 33603,
        "meta_element_set_no": 999,
        "meta_rev_at_epoch": 98746,
        "meta_bstar": 0.00035268434,
        "meta_mean_motion_dot": 3.96e-05,
        "meta_mean_motion_ddot": 0,
        "tle_line1": "1 33603U 99025DCL 25339.04939120  .00003960  00000+0  35268-3 0  9994",
        "tle_line2": "2 33603  98.8039 273.9970 0220742  96.7761 265.8619 14.79868588987469"
      },
      "geometry": {
        "type": "Point",
        "coordinates": [
          101.97788290089107,
          34.755034997923524
        ]
      }
    },
    {
      "type": "Feature",
      "properties": {
        "norad_id": 33605,
        "name": "FENGYUN 1C DEB",
        "group": "fengyun-1c-debris",
        "lat": 7.373243839743046,
        "lon": 161.07656361515726,
        "alt_km": 861.9584847327678,
        "timestamp": "2025-12-06T16:45:43.008789+00:00",
        "meta_object_name": "FENGYUN 1C DEB",
        "meta_object_id": "1999-025DCN",
        "meta_epoch": "2025-12-06T05:47:20.437728",
        "meta_mean_motion": 14.07750493,
        "meta_eccentricity": 0.00572325,
        "meta_inclination": 98.6983,
        "meta_ra_of_asc_node": 339.5011,
        "meta_arg_of_pericenter": 93.1166,
        "meta_mean_anomaly": 282.8792,
        "meta_ephemeris_type": 0,
        "meta_classification_type": "U",
        "meta_norad_cat_id": 33605,
        "meta_element_set_no": 999,
        "meta_rev_at_epoch": 59727,
        "meta_bstar": 0.0008681193,
        "meta_mean_motion_dot": 1.45e-05,
        "meta_mean_motion_ddot": 0,
        "tle_line1": "1 33605U 99025DCN 25340.24120877  .00001450  00000+0  86812-3 0  9994",
        "tle_line2": "2 33605  98.6983 339.5011 0057232  93.1166 282.8792 14.07750493597277"
      },
      "geometry": {
        "type": "Point",
        "coordinates": [
          161.07656361515726,
          7.373243839743046
        ]
      }
    }
  ]
}